[{"OBJECT_NAME":"STARLINK-3129","OBJECT_ID":"2021-104AX","EPOCH":"2026-03-09T16:20:11.975424","MEAN_MOTION":15.08844076,"ECCENTRICITY":0.00011327,"INCLINATION":53.2176,"RA_OF_ASC_NODE":219.2491,"ARG_OF_PERICENTER":81.7118,"MEAN_ANOMALY":278.4002,"EPHEMERIS_TYPE":0,"CLASSIFICATION_TYPE":"U","NORAD_CAT_ID":49453,"ELEMENT_SET_NO":999,"REV_AT_EPOCH":23877,"BSTAR":-3.1337388e-5,"MEAN_MOTION_DOT":-7.87e-6,"MEAN_MOTION_DDOT":0},{"OBJECT_NAME":"FREGAT DEB","OBJECT_ID":"2011-037BR","EPOCH":"2026-03-08T16:41:19.114368","MEAN_MOTION":11.55431875,"ECCENTRICITY":0.16348363,"INCLINATION":51.442,"RA_OF_ASC_NODE":302.7911,"ARG_OF_PERICENTER":221.4876,"MEAN_ANOMALY":124.9869,"EPHEMERIS_TYPE":0,"CLASSIFICATION_TYPE":"U","NORAD_CAT_ID":45831,"ELEMENT_SET_NO":999,"REV_AT_EPOCH":24228,"BSTAR":0.0010461944,"MEAN_MOTION_DOT":1.975e-5,"MEAN_MOTION_DDOT":0}]
